{"type": "FeatureCollection", "features": [ {"type": "Feature", "properties": {"norad_id": 30663, "name": "FENGYUN 1C DEB", "group": "fengyun-1c-debris", "lat": -24.470749032332304, "lon": 89.2720289926498, "alt_km": 1187.0632147686865, "timestamp": "2025-12-23T16:57:12.630422+00:00", "meta": {"OBJECT_NAME": "FENGYUN 1C DEB", "OBJECT_ID": "1999-025APV", "EPOCH": "2025-12-23T05:06:25.082784", "MEAN_MOTION": 13.2319364, "ECCENTRICITY": 0.0649196, "INCLINATION": 99.3034, "RA_OF_ASC_NODE": 273.1066, "ARG_OF_PERICENTER": 111.1171, "MEAN_ANOMALY": 256.0579, "EPHEMERIS_TYPE": 0, "CLASSIFICATION_TYPE": "U", "NORAD_CAT_ID": 30663, "ELEMENT_SET_NO": 999, "REV_AT_EPOCH": 89186, "BSTAR": 0.0028916729, "MEAN_MOTION_DOT": 3.763e-05, "MEAN_MOTION_DDOT": 0}, "tle": {"line1": "1 30663U 99025APV 25357.21279031  .00003763  00000+0  28917-2 0  9997", "line2": "2 30663  99.3034 273.1066 0649196 111.1171 256.0579 13.23193640891869"}}, "geometry": {"type": "Point", "coordinates": [89.2720289926498, -24.470749032332304]}}, {"type": "Feature", "properties": {"norad_id": 30665, "name": "FENGYUN 1C DEB", "group": "fengyun-1c-debris", "lat": -39.20091602675889, "lon": -22.792226586929754, "alt_km": 899.4351287685377, "timestamp": "2025-12-23T16:57:12.630432+00:00", "meta": {"OBJECT_NAME": "FENGYUN 1C DEB", "OBJECT_ID": "1999-025APX", "EPOCH": "2025-12-20T21:16:17.931360", "MEAN_MOTION": 14.12381178, "ECCENTRICITY": 0.0067638, "INCLINATION": 99.2086, "RA_OF_ASC_NODE": 326.7083, "ARG_OF_PERICENTER": 179.169, "MEAN_ANOMALY": 209.6706, "EPHEMERIS_TYPE": 0, "CLASSIFICATION_TYPE": "U", "NORAD_CAT_ID": 30665, "ELEMENT_SET_NO": 999, "REV_AT_EPOCH": 96085, "BSTAR": 0.0010029, "MEAN_MOTION_DOT": 1.843e-05, "MEAN_MOTION_DDOT": 0}, "tle": {"line1": "1 30665U 99025APX 25354.88631865  .00001843  00000+0  10029-2 0  9998", "line2": "2 30665  99.2086 326.7083 0067638 179.1690 209.6706 14.12381178960852"}}, "geometry": {"type": "Point", "coordinates": [-22.792226586929754, -39.20091602675889]}}, {"type": "Feature", "properties": {"norad_id": 30666, "name": "FENGYUN 1C DEB", "group": "fengyun-1c-debris", "lat": 74.3417180977985, "lon": -165.37240928975598, "alt_km": 834.0189235326934, "timestamp": "2025-12-23T16:57:12.630443+00:00", "meta": {"OBJECT_NAME": "FENGYUN 1C DEB", "OBJECT_ID": "1999-025APY", "EPOCH": "2025-12-23T04:47:03.356160", "MEAN_MOTION": 14.02564152, "ECCENTRICITY": 0.00614013, "INCLINATION": 98.8231, "RA_OF_ASC_NODE": 340.487, "ARG_OF_PERICENTER": 115.4404, "MEAN_ANOMALY": 308.8464, "EPHEMERIS_TYPE": 0, "CLASSIFICATION_TYPE": "U", "NORAD_CAT_ID": 30666, "ELEMENT_SET_NO": 999, "REV_AT_EPOCH": 96257, "BSTAR": 0.00037238861, "MEAN_MOTION_DOT": 5.41e-06, "MEAN_MOTION_DDOT": 0}, "tle": {"line1": "1 30666U 99025APY 25357.19934440  .00000541  00000+0  37239-3 0  9998", "line2": "2 30666  98.8231 340.4870 0061401 115.4404 308.8464 14.02564152962573"}}, "geometry": {"type": "Point", "coordinates": [-165.37240928975598, 74.3417180977985]}}, {"type": "Feature", "properties": {"norad_id": 30668, "name": "FENGYUN 1C DEB", "group": "fengyun-1c-debris", "lat": 49.97277635436579, "lon": 59.93067420496946, "alt_km": 902.3065045243811, "timestamp": "2025-12-23T16:57:12.630453+00:00", "meta": {"OBJECT_NAME": "FENGYUN 1C DEB", "OBJECT_ID": "1999-025AQA", "EPOCH": "2025-12-23T04:55:21.657792", "MEAN_MOTION": 14.12390526, "ECCENTRICITY": 0.00799078, "INCLINATION": 99.1305, "RA_OF_ASC_NODE": 70.459, "ARG_OF_PERICENTER": 217.1809, "MEAN_ANOMALY": 166.5563, "EPHEMERIS_TYPE": 0, "CLASSIFICATION_TYPE": "U", "NORAD_CAT_ID": 30668, "ELEMENT_SET_NO": 999, "REV_AT_EPOCH": 96203, "BSTAR": 0.0018354927, "MEAN_MOTION_DOT": 3.443e-05, "MEAN_MOTION_DDOT": 0}, "tle": {"line1": "1 30668U 99025AQA 25357.20511178  .00003443  00000+0  18355-2 0  9992", "line2": "2 30668  99.1305  70.4590 0079907 217.1809 166.5563 14.12390526962032"}}, "geometry": {"type": "Point", "coordinates": [59.93067420496946, 49.97277635436579]}}, {"type": "Feature", "properties": {"norad_id": 30669, "name": "FENGYUN 1C DEB", "group": "fengyun-1c-debris", "lat": 80.64112651778099, "lon": -133.41369547319897, "alt_km": 832.1475735032591, "timestamp": "2025-12-23T16:57:12.630464+00:00", "meta": {"OBJECT_NAME": "FENGYUN 1C DEB", "OBJECT_ID": "1999-025AQB", "EPOCH": "2025-12-21T01:29:58.279776", "MEAN_MOTION": 14.02754852, "ECCENTRICITY": 0.01181216, "INCLINATION": 98.6354, "RA_OF_ASC_NODE": 291.3047, "ARG_OF_PERICENTER": 153.0273, "MEAN_ANOMALY": 270.3448, "EPHEMERIS_TYPE": 0, "CLASSIFICATION_TYPE": "U", "NORAD_CAT_ID": 30669, "ELEMENT_SET_NO": 999, "REV_AT_EPOCH": 95570, "BSTAR": 0.0010787169, "MEAN_MOTION_DOT": 1.733e-05, "MEAN_MOTION_DDOT": 0}, "tle": {"line1": "1 30669U 99025AQB 25355.06248009  .00001733  00000+0  10787-2 0  9996", "line2": "2 30669  98.6354 291.3047 0118121 153.0273 270.3448 14.02754852955704"}}, "geometry": {"type": "Point", "coordinates": [-133.41369547319897, 80.64112651778099]}}, {"type": "Feature", "properties": {"norad_id": 30670, "name": "FENGYUN 1C DEB", "group": "fengyun-1c-debris", "lat": 12.631640114833031, "lon": -136.14337605461998, "alt_km": 858.3031748950116, "timestamp": "2025-12-23T16:57:12.630476+00:00", "meta": {"OBJECT_NAME": "FENGYUN 1C DEB", "OBJECT_ID": "1999-025AQC", "EPOCH": "2025-12-21T20:20:06.431424", "MEAN_MOTION": 14.15820847, "ECCENTRICITY": 0.003959, "INCLINATION": 98.7094, "RA_OF_ASC_NODE": 40.0711, "ARG_OF_PERICENTER": 44.0879, "MEAN_ANOMALY": 12.2318, "EPHEMERIS_TYPE": 0, "CLASSIFICATION_TYPE": "U", "NORAD_CAT_ID": 30670, "ELEMENT_SET_NO": 999, "REV_AT_EPOCH": 97281, "BSTAR": 8.9237632e-05, "MEAN_MOTION_DOT": 1.34e-06, "MEAN_MOTION_DDOT": 0}, "tle": {"line1": "1 30670U 99025AQC 25355.84729666  .00000134  00000+0  89238-4 0  9990", "line2": "2 30670  98.7094  40.0711 0039590  44.0879  12.2318 14.15820847972810"}}, "geometry": {"type": "Point", "coordinates": [-136.14337605461998, 12.631640114833031]}}, {"type": "Feature", "properties": {"norad_id": 30671, "name": "FENGYUN 1C DEB", "group": "fengyun-1c-debris", "lat": 48.837834561972585, "lon": 51.712531764035134, "alt_km": 841.2752328557171, "timestamp": "2025-12-23T16:57:12.630489+00:00", "meta": {"OBJECT_NAME": "FENGYUN 1C DEB", "OBJECT_ID": "1999-025AQD", "EPOCH": "2025-12-22T03:11:08.399040", "MEAN_MOTION": 13.95491658, "ECCENTRICITY": 0.01257678, "INCLINATION": 99.252, "RA_OF_ASC_NODE": 60.8783, "ARG_OF_PERICENTER": 7.5381, "MEAN_ANOMALY": 59.7634, "EPHEMERIS_TYPE": 0, "CLASSIFICATION_TYPE": "U", "NORAD_CAT_ID": 30671, "ELEMENT_SET_NO": 999, "REV_AT_EPOCH": 95326, "BSTAR": 0.0012094625, "MEAN_MOTION_DOT": 1.709e-05, "MEAN_MOTION_DDOT": 0}, "tle": {"line1": "1 30671U 99025AQD 25356.13273610  .00001709  00000+0  12095-2 0  9991", "line2": "2 30671  99.2520  60.8783 0125767   7.5381  59.7634 13.95491658953260"}}, "geometry": {"type": "Point", "coordinates": [51.712531764035134, 48.837834561972585]}}, {"type": "Feature", "properties": {"norad_id": 30673, "name": "FENGYUN 1C DEB", "group": "fengyun-1c-debris", "lat": -2.337892861766647, "lon": -133.71363040854155, "alt_km": 871.5554429974591, "timestamp": "2025-12-23T16:57:12.630499+00:00", "meta": {"OBJECT_NAME": "FENGYUN 1C DEB", "OBJECT_ID": "1999-025AQF", "EPOCH": "2025-12-22T19:51:27.694368", "MEAN_MOTION": 14.03457516, "ECCENTRICITY": 0.0052822, "INCLINATION": 98.9179, "RA_OF_ASC_NODE": 45.792, "ARG_OF_PERICENTER": 114.9833, "MEAN_ANOMALY": 308.0854, "EPHEMERIS_TYPE": 0, "CLASSIFICATION_TYPE": "U", "NORAD_CAT_ID": 30673, "ELEMENT_SET_NO": 999, "REV_AT_EPOCH": 96673, "BSTAR": 9.2427e-06, "MEAN_MOTION_DOT": -2.8e-07, "MEAN_MOTION_DDOT": 0}, "tle": {"line1": "1 30673U 99025AQF 25356.82740387 -.00000028  00000+0  92427-5 0  9993", "line2": "2 30673  98.9179  45.7920 0052822 114.9833 308.0854 14.03457516966734"}}, "geometry": {"type": "Point", "coordinates": [-133.71363040854155, -2.337892861766647]}}, {"type": "Feature", "properties": {"norad_id": 30674, "name": "FENGYUN 1C DEB", "group": "fengyun-1c-debris", "lat": -35.3759459822473, "lon": -24.348640195872278, "alt_km": 571.4775168209089, "timestamp": "2025-12-23T16:57:12.630509+00:00", "meta": {"OBJECT_NAME": "FENGYUN 1C DEB", "OBJECT_ID": "1999-025AQG", "EPOCH": "2025-12-22T09:30:53.307648", "MEAN_MOTION": 14.97059605, "ECCENTRICITY": 0.00251024, "INCLINATION": 98.9376, "RA_OF_ASC_NODE": 160.5709, "ARG_OF_PERICENTER": 274.9621, "MEAN_ANOMALY": 84.8731, "EPHEMERIS_TYPE": 0, "CLASSIFICATION_TYPE": "U", "NORAD_CAT_ID": 30674, "ELEMENT_SET_NO": 999, "REV_AT_EPOCH": 97496, "BSTAR": 0.0079614615, "MEAN_MOTION_DOT": 0.00093447, "MEAN_MOTION_DDOT": 0}, "tle": {"line1": "1 30674U 99025AQG 25356.39645032  .00093447  00000+0  79615-2 0  9994", "line2": "2 30674  98.9376 160.5709 0025102 274.9621  84.8731 14.97059605974965"}}, "geometry": {"type": "Point", "coordinates": [-24.348640195872278, -35.3759459822473]}}, {"type": "Feature", "properties": {"norad_id": 30675, "name": "FENGYUN 1C DEB", "group": "fengyun-1c-debris", "lat": 78.26071747553988, "lon": 28.987831182377363, "alt_km": 771.0089736514619, "timestamp": "2025-12-23T16:57:12.630520+00:00", "meta": {"OBJECT_NAME": "FENGYUN 1C DEB", "OBJECT_ID": "1999-025AQH", "EPOCH": "2025-12-22T03:41:48.615360", "MEAN_MOTION": 14.274716, "ECCENTRICITY": 0.0053753, "INCLINATION": 98.7543, "RA_OF_ASC_NODE": 75.294, "ARG_OF_PERICENTER": 142.5271, "MEAN_ANOMALY": 247.2127, "EPHEMERIS_TYPE": 0, "CLASSIFICATION_TYPE": "U", "NORAD_CAT_ID": 30675, "ELEMENT_SET_NO": 999, "REV_AT_EPOCH": 97026, "BSTAR": 0.001493209, "MEAN_MOTION_DOT": 3.68e-05, "MEAN_MOTION_DDOT": 0}, "tle": {"line1": "1 30675U 99025AQH 25356.15403490  .00003680  00000+0  14932-2 0  9990", "line2": "2 30675  98.7543  75.2940 0053753 142.5271 247.2127 14.27471600970262"}}, "geometry": {"type": "Point", "coordinates": [28.987831182377363, 78.26071747553988]}}]}